GSAT0101 (PRN E11)      
1 37846U 11060A   22021.01824188 -.00000050  00000+0  00000+0 0  9999
2 37846  56.9399  25.3459 0003376 326.0752  33.9309  1.70475078 63705
GSAT0102 (PRN E12)      
1 37847U 11060B   22020.94880255 -.00000050  00000+0  00000+0 0  9998
2 37847  56.9406  25.3473 0005133 309.8622  54.0148  1.70475378 63718
GSAT0103 (PRN E19)      
1 38857U 12055A   22020.47197678  .00000024  00000+0  00000+0 0  9993
2 38857  55.0983 145.7686 0002642 240.1286 119.8077  1.70473605 57588
GSAT0104 (PRN E20)      
1 38858U 12055B   22020.44233122  .00000024  00000+0  00000+0 0  9996
2 38858  55.0985 145.7710 0001223 172.4240 187.5401  1.70473874 57581
GSAT0201 (PRN E18)      
1 40128U 14050A   22021.06236150 -.00000079  00000+0  00000+0 0  9990
2 40128  50.3718 338.1563 1632176 118.8558 258.5161  1.85519325 48483
GSAT0202 (PRN E14)      
1 40129U 14050B   22019.16792399 -.00000085  00000+0  00000+0 0  9998
2 40129  50.4000 337.2878 1629348 119.5975 257.6464  1.85519999 50617
GSAT0203 (PRN E26)      
1 40544U 15017A   22021.38616388 -.00000050  00000+0  00000+0 0  9995
2 40544  56.7352  25.3892 0005172 266.5032  93.4648  1.70475962 41791
GSAT0204 (PRN E22)      
1 40545U 15017B   22021.05212885 -.00000050  00000+0  00000+0 0  9994
2 40545  56.7407  25.4102 0004622 256.3041 103.6722  1.70475734  4832
GSAT0205 (PRN E24)      
1 40889U 15045A   22019.64640050  .00000043  00000+0  00000+0 0  9998
2 40889  55.7211 266.0742 0006258  17.4278 342.6893  1.70474842 39575
GSAT0206 (PRN E30)      
1 40890U 15045B   22021.03991437  .00000043  00000+0  00000+0 0  9994
2 40890  55.7198 266.0317 0004523  12.1357 347.9664  1.70473095 39621
GSAT0209 (PRN E09)      
1 41174U 15079A   22020.62856101  .00000024  00000+0  00000+0 0  9998
2 41174  55.1140 145.4668 0002470 318.3336  41.6115  1.70473564 37936
GSAT0208 (PRN E08)      
1 41175U 15079B   22020.26162064  .00000022  00000+0  00000+0 0  9995
2 41175  55.1124 145.4756 0001730 321.5566  38.3926  1.70473553 37768
GSAT0211 (PRN E02)      
1 41549U 16030A   22020.96791542  .00000043  00000+0  00000+0 0  9997
2 41549  55.8650 265.9512 0004827 348.4006  11.6800  1.70474550 35254
GSAT0210 (PRN E01)      
1 41550U 16030B   22020.08746103  .00000044  00000+0  00000+0 0  9996
2 41550  55.8641 265.9769 0003259 328.5341  31.5411  1.70474638 35233
GSAT0207 (PRN E07)      
1 41859U 16069A   22021.50760972  .00000028  00000+0  00000+0 0  9990
2 41859  54.7743 145.6601 0002518 292.1994  67.7430  1.70473531 31994
GSAT0212 (PRN E03)      
1 41860U 16069B   22021.36103239  .00000027  00000+0  00000+0 0  9992
2 41860  54.7717 145.6622 0001508 345.4778  14.4859  1.70473533 32245
GSAT0213 (PRN E04)      
1 41861U 16069C   22020.55333505  .00000024  00000+0  00000+0 0  9991
2 41861  54.7740 145.6894 0002469 252.8646 107.0713  1.70473562 32223
GSAT0214 (PRN E05)      
1 41862U 16069D   22021.28703373  .00000027  00000+0  00000+0 0  9990
2 41862  54.7724 145.6639 0001602 251.6656 108.2847  1.70473622 32238
GSAT0215 (PRN E21)      
1 43055U 17079A   22021.19129898  .00000043  00000+0  00000+0 0  9990
2 43055  55.8402 265.7797 0002611 332.6817  27.3953  1.70473816 25571
GSAT0216 (PRN E25)      
1 43056U 17079B   22020.89704913  .00000044  00000+0  00000+0 0  9995
2 43056  55.8408 265.7875 0003951 312.1917  47.8668  1.70473953 25557
GSAT0217 (PRN E27)      
1 43057U 17079C   22021.11724933  .00000043  00000+0  00000+0 0  9995
2 43057  55.8386 265.7814 0004138 327.3283  32.7372  1.70473838 25577
GSAT0218 (PRN E31)      
1 43058U 17079D   22019.57750392  .00000044  00000+0  00000+0 0  9992
2 43058  55.8399 265.8212 0004186 304.3255  55.7309  1.70473940 25571
GSAT0221 (PRN E15)      
1 43564U 18060A   22021.23520027 -.00000050  00000+0  00000+0 0  9999
2 43564  57.1178  25.1712 0005824 279.7512  80.2100  1.70475899 21759
GSAT0222 (PRN E33)      
1 43565U 18060B   22020.28187573 -.00000051  00000+0  00000+0 0  9990
2 43565  57.1202  25.1973 0005490 285.4780  74.4903  1.70475876 21781
GSAT0219 (PRN E36)      
1 43566U 18060C   22021.08903571 -.00000050  00000+0  00000+0 0  9993
2 43566  57.1206  25.1773 0005148 286.4191  73.5515  1.70475868 21770
GSAT0220 (PRN E13)      
1 43567U 18060D   22021.30904109 -.00000049  00000+0  00000+0 0  9995
2 43567  57.1211  25.1723 0005351 282.7500  77.2170  1.70475790 21762
GSAT0223                
1 49809U 21116A   22008.22772889 -.00000085  00000+0  00000+0 0  9990
2 49809  57.1187  25.4353 0022745  79.5494 282.3768  1.68525270   575
GSAT0224                
1 49810U 21116B   22011.14741184 -.00000078  00000+0  00000+0 0  9993
2 49810  57.1073  25.3416 0008726  15.0853  72.3600  1.69516045   626
